MEAN_MOTION;ECCENTRICITY;INCLINATION;RA_OF_ASC_NODE;ARG_OF_PERICENTER;MEAN_ANOMALY;BSTAR;MEAN_MOTION_DOT;MEAN_MOTION_DDOT;TYPE
14.34217554;0.0003297;86.3974;317.9695;83.4475;276.7097;1.7977E-5;7.0E-7;0;Iridium
14.34217626;0.0003289;86.3973;317.707;82.6941;277.4629;1.8366E-5;7.1E-7;0;Iridium
14.34217647;0.0003286;86.3973;317.5612;82.4378;277.7191;1.8643E-5;7.2E-7;0;Iridium
14.34217767;0.0003278;86.3971;317.2696;81.5924;278.5643;2.2043E-5;8.2E-7;0;Iridium
14.34217765;0.0003276;86.3971;317.1821;81.3124;278.8443;2.0671E-5;7.8E-7;0;Iridium
14.34217788;0.0003269;86.3971;317.0363;80.8594;279.2972;2.0037E-5;7.6E-7;0;Iridium
14.34217856;0.0003263;86.397;316.8613;80.3783;279.7781;2.2507E-5;8.3E-7;0;Iridium
14.34217942;0.0003253;86.3969;316.6572;79.8273;280.329;2.5651E-5;9.2E-7;0;Iridium
14.34217942;0.0003253;86.3969;316.6572;79.8273;280.329;2.5651E-5;9.2E-7;0;Iridium
14.34218091;0.000322;86.3966;316.0155;78.1014;282.0543;2.4076E-5;8.7E-7;0;Iridium
14.34218232;0.0003197;86.3964;315.6072;76.9812;283.174;2.5178E-5;9.0E-7;0;Iridium
14.34218267;0.0003194;86.3964;315.5488;76.8263;283.3289;2.5061E-5;9.0E-7;0;Iridium
14.34218477;0.0003173;86.3962;315.1988;75.8612;284.2936;2.8533E-5;1.0E-6;0;Iridium
14.34218476;0.0003169;86.3962;315.1404;75.7299;284.4248;2.6803E-5;9.5E-7;0;Iridium
14.34218658;0.0003148;86.3961;314.6446;74.7393;285.415;2.6011E-5;9.3E-7;0;Iridium
14.34218653;0.0003154;86.396;314.3529;73.9979;286.1564;1.9106E-5;7.3E-7;0;Iridium
14.34218682;0.000315;86.396;314.2654;73.7185;286.4357;1.9002E-5;7.3E-7;0;Iridium
14.34218811;0.0003132;86.3958;313.9446;72.7341;287.4197;1.9274E-5;7.4E-7;0;Iridium
14.34218852;0.0003122;86.3958;313.7987;72.4547;287.699;1.8986E-5;7.3E-7;0;Iridium
14.3421897;0.0003101;86.3956;313.5361;71.6424;288.5109;2.1746E-5;8.1E-7;0;Iridium
14.34219027;0.0003087;86.3956;313.3903;71.3411;288.8119;2.3364E-5;8.5E-7;0;Iridium
14.34219055;0.0003062;86.3955;313.0985;70.5741;289.5785;1.8214E-5;7.1E-7;0;Iridium
14.34219119;0.0003046;86.3954;312.9526;70.3232;289.8292;2.1271E-5;7.9E-7;0;Iridium
14.34219234;0.0003023;86.3953;312.6901;69.5393;290.6127;2.3071E-5;8.4E-7;0;Iridium
14.34219248;0.0003021;86.3953;312.6609;69.4625;290.6894;2.2993E-5;8.4E-7;0;Iridium
14.34219288;0.000301;86.3953;312.5442;69.1831;290.9687;2.4599E-5;8.9E-7;0;Iridium
14.34219615;0.0002993;86.3952;312.2815;68.4263;291.7251;3.8682E-5;1.28E-6;0;Iridium
14.34219637;0.000299;86.3952;312.2524;68.325;291.8264;3.8954E-5;1.29E-6;0;Iridium
14.34219761;0.0002978;86.3952;312.1356;68.2323;291.9189;4.4195E-5;1.44E-6;0;Iridium
14.34219965;0.0002949;86.3951;311.8438;67.4609;292.6898;4.8063E-5;1.54E-6;0;Iridium
14.34220006;0.0002932;86.3951;311.698;67.1635;292.987;4.7056E-5;1.52E-6;0;Iridium
14.3422018;0.0002905;86.3949;311.4353;66.5188;293.6313;4.8131E-5;1.55E-6;0;Iridium
14.34220183;0.00029;86.3949;311.377;66.4227;293.7273;4.6576E-5;1.5E-6;0;Iridium
14.34220143;0.0002864;86.3948;311.0268;65.6057;294.5438;3.4789E-5;1.17E-6;0;Iridium
14.34220182;0.0002845;86.3948;310.8809;65.3568;294.7924;3.4326E-5;1.16E-6;0;Iridium
14.34220203;0.0002818;86.3946;310.589;64.5452;295.6035;2.7703E-5;9.7E-7;0;Iridium
14.3422026;0.0002802;86.3946;310.4431;64.3109;295.8376;2.9045E-5;1.01E-6;0;Iridium
14.34220323;0.0002769;86.3944;310.1805;63.7786;296.3694;2.6207E-5;9.3E-7;0;Iridium
14.34220355;0.0002749;86.3944;310.0345;63.5596;296.5882;2.6406E-5;9.4E-7;0;Iridium
14.34220336;0.0002733;86.3943;309.801;62.9891;297.1583;2.0397E-5;7.7E-7;0;Iridium
14.34218229;0.0002682;86.3942;309.626;62.9171;297.2298;2.0047E-5;7.6E-7;0;Iridium
14.3421781;0.0002679;86.3941;309.3632;62.1747;297.972;1.9259E-5;7.4E-7;0;Iridium
14.3421781;0.0002679;86.3941;309.3632;62.1747;297.972;1.9259E-5;7.4E-7;0;Iridium
14.34217819;0.0002675;86.3941;309.334;62.1108;298.0358;1.8789E-5;7.2E-7;0;Iridium
14.34217775;0.0002655;86.3941;309.1881;62.057;298.0894;4.0247E-6;3.1E-7;0;Iridium
14.34217816;0.0002618;86.394;308.9254;61.4056;298.7403;2.3854E-6;2.6E-7;0;Iridium
14.34217816;0.0002614;86.3939;308.8962;61.3628;298.783;1.8837E-6;2.5E-7;0;Iridium
14.34217822;0.0002595;86.3939;308.7795;61.2988;298.8469;1.9817E-6;2.5E-7;0;Iridium
14.34217837;0.0002585;86.3939;308.7211;61.1688;298.9767;1.5084E-6;2.4E-7;0;Iridium
14.34217911;0.0002535;86.3938;308.3416;60.4328;299.712;6.8364E-6;3.9E-7;0;Iridium
14.3421792;0.0002526;86.3937;308.2832;60.2661;299.8786;5.8727E-6;3.6E-7;0;Iridium
14.34217902;0.0002503;86.3937;308.1081;59.9791;300.1653;3.0139E-6;2.8E-7;0;Iridium
14.34217875;0.0002476;86.3937;307.933;59.6791;300.4649;1.0793E-6;2.3E-7;0;Iridium
14.34217849;0.0002444;86.3936;307.6994;59.1115;301.0321;-2.3267E-6;1.3E-7;0;Iridium
14.3421777;0.0002405;86.3936;307.4366;54.7936;305.3485;-2.52E-6;1.3E-7;0;Iridium
14.34217715;0.0002355;86.3935;307.0863;54.1639;305.9775;-5.0311E-6;6.0E-8;0;Iridium
14.34217652;0.0002323;86.3934;306.8528;53.6803;306.4607;-7.4427E-6;-1.0E-8;0;Iridium
14.34217646;0.0002293;86.3933;306.6776;53.4588;306.6818;-7.1462E-6;0;0;Iridium
14.34217684;0.000225;86.3932;306.3857;52.904;307.2361;-5.122E-6;5.0E-8;0;Iridium
14.34217686;0.000223;86.3932;306.2689;52.8037;307.3362;-4.3526E-6;8.0E-8;0;Iridium
14.34217742;0.0002186;86.3931;305.9769;52.1646;307.9748;-1.7962E-6;1.5E-7;0;Iridium
14.34217746;0.0002161;86.393;305.8309;52.0335;308.1056;-1.1393E-6;1.7E-7;0;Iridium
14.34217792;0.0002107;86.3931;305.539;56.3877;303.7519;5.1215E-6;3.4E-7;0;Iridium
14.34217792;0.0002088;86.3931;305.4223;56.2249;303.9146;6.4648E-6;3.8E-7;0;Iridium
14.34217812;0.0002054;86.393;305.1595;55.7716;304.3674;6.4171E-6;3.8E-7;0;Iridium
14.34217776;0.0002027;86.3931;305.0135;55.7032;304.4356;6.149E-6;3.7E-7;0;Iridium
14.34217762;0.0002;86.3929;304.7508;51.1129;309.0245;-4.3975E-7;1.9E-7;0;Iridium
14.34217739;0.0001969;86.3928;304.5756;51.0008;309.1362;-1.3343E-6;1.6E-7;0;Iridium
14.34217707;0.0001904;86.3928;304.1668;50.4298;309.7066;-2.4996E-6;1.3E-7;0;Iridium
14.34217724;0.0001855;86.3928;303.8748;50.2027;309.9332;-1.1165E-6;1.7E-7;0;Iridium
14.34217753;0.0001785;86.3928;303.466;50.1981;309.9372;2.325E-7;2.0E-7;0;Iridium
14.34217756;0.0001759;86.3928;303.32;50.2458;309.8893;4.9993E-7;2.1E-7;0;Iridium
14.34217809;0.0001702;86.3927;303.0572;55.3689;304.7667;-1.5372E-6;1.5E-7;0;Iridium
14.34217812;0.0001676;86.3927;302.9112;55.427;304.7084;-1.3123E-6;1.6E-7;0;Iridium
14.34217833;0.0001625;86.3927;302.6192;56.4573;303.6778;-2.3376E-6;1.3E-7;0;Iridium
14.3421783;0.0001604;86.3927;302.5024;56.6018;303.5331;-1.8463E-6;1.5E-7;0;Iridium
14.34217809;0.0001554;86.3927;302.2104;57.7791;302.3555;-3.7675E-6;9.0E-8;0;Iridium
14.34217795;0.000153;86.3927;302.0644;57.8702;302.2642;-3.5737E-6;1.0E-7;0;Iridium
14.34217763;0.000149;86.3927;301.8016;52.9227;307.2105;-8.5031E-7;1.7E-7;0;Iridium
14.34217763;0.000149;86.3927;301.8016;52.9227;307.2105;-8.5031E-7;1.7E-7;0;Iridium
14.34217758;0.000146;86.3927;301.6555;59.4386;300.6954;-4.4538E-6;7.0E-8;0;Iridium
14.3421774;0.0001432;86.3926;301.422;53.223;306.9097;-1.9974E-6;1.4E-7;0;Iridium
14.34217737;0.0001397;86.3926;301.1884;53.5692;306.5633;-2.1158E-6;1.4E-7;0;Iridium
14.34217758;0.0001367;86.3926;300.984;53.8102;306.322;-1.2552E-6;1.6E-7;0;Iridium
14.34217753;0.0001332;86.3927;300.8087;61.5427;298.5903;-2.2241E-7;1.9E-7;0;Iridium
14.34217779;0.0001293;86.3927;300.5166;62.365;297.7676;1.547E-6;2.4E-7;0;Iridium
14.3421778;0.0001275;86.3927;300.3998;62.6196;297.5129;2.7782E-6;2.8E-7;0;Iridium
14.34217789;0.0001243;86.3927;300.137;63.7299;296.4024;3.2999E-6;2.9E-7;0;Iridium
14.34217785;0.0001223;86.3928;299.9911;64.153;295.9792;4.5654E-6;3.3E-7;0;Iridium
14.34217777;0.0001174;86.3925;299.6992;56.929;303.2018;-2.8809E-7;1.9E-7;0;Iridium
14.34217748;0.0001152;86.3925;299.5532;57.6966;302.4341;-1.6394E-6;1.5E-7;0;Iridium
14.34217747;0.0001102;86.3925;299.1735;59.8828;300.2477;-1.1537E-6;1.7E-7;0;Iridium
14.34217754;0.0001099;86.3925;299.1443;60.0604;300.0701;-9.7884E-7;1.7E-7;0;Iridium
14.34217748;0.0001062;86.3925;298.8815;61.7047;298.4256;-9.022E-7;1.7E-7;0;Iridium
14.34217748;0.0001045;86.3925;298.7355;62.8223;297.3079;-5.7958E-7;1.8E-7;0;Iridium
14.34217745;0.0001016;86.3926;298.4727;64.636;295.494;-6.7751E-7;1.8E-7;0;Iridium
14.34217813;0.0001029;86.3927;298.2974;74.6049;285.5261;3.4428E-6;2.9E-7;0;Iridium
14.34217832;0.0001013;86.3927;298.0346;76.8286;283.3023;2.6156E-6;2.7E-7;0;Iridium
14.34217834;0.0001001;86.3927;297.8885;78.3281;281.8027;2.4707E-6;2.7E-7;0;Iridium
14.34217742;9.39E-5;86.3926;297.6257;71.82;288.3098;-5.4523E-7;1.8E-7;0;Iridium
14.34217726;9.29E-5;86.3927;297.4798;73.1704;286.9594;-1.1755E-6;1.6E-7;0;Iridium
14.34217683;9.13E-5;86.3927;297.2169;75.9598;284.17;-3.225E-6;1.1E-7;0;Iridium
14.34217683;9.13E-5;86.3927;297.2169;75.9598;284.17;-3.225E-6;1.1E-7;0;Iridium
14.34217637;9.0E-5;86.3928;297.0417;77.415;282.7147;-5.1121E-6;5.0E-8;0;Iridium
14.34217623;8.9E-5;86.3928;296.7789;80.7007;279.4289;-5.5658E-6;4.0E-8;0;Iridium
14.3421761;8.88E-5;86.3928;296.6329;82.4018;277.7279;-5.8674E-6;3.0E-8;0;Iridium
14.34217623;8.83E-5;86.3928;296.3702;85.1265;275.0032;-4.8113E-6;6.0E-8;0;Iridium
14.34217618;8.83E-5;86.3929;296.2242;86.7184;273.4113;-4.6987E-6;7.0E-8;0;Iridium
14.34217649;8.83E-5;86.3929;295.9616;89.4588;270.6708;-3.0014E-6;1.1E-7;0;Iridium
14.34217631;8.86E-5;86.3929;295.7864;91.4455;268.6842;-3.6414E-6;1.0E-7;0;Iridium
14.34217658;8.91E-5;86.3929;295.5821;93.5753;266.5544;-2.0718E-6;1.4E-7;0;Iridium
14.34217698;0.0001018;86.3933;295.1147;105.141;254.9899;4.6475E-7;2.1E-7;0;Iridium
14.34217811;0.0001056;86.3934;294.706;109.093;251.038;6.3588E-6;3.8E-7;0;Iridium
14.34217862;0.0001072;86.3935;294.5308;110.7443;249.3868;9.4746E-6;4.6E-7;0;Iridium
14.34213332;0.0002018;86.3929;294.2952;121.6699;238.4694;9.4631E-6;4.6E-7;0;Iridium
14.34216777;8.43E-5;86.3929;294.2676;107.7804;252.3484;9.4411E-6;4.6E-7;0;Iridium
14.34216691;0.0001061;86.393;294.1216;113.2806;246.8501;1.1049E-5;5.1E-7;0;Iridium
14.34216582;0.0001139;86.3935;293.8592;115.7044;244.427;1.1215E-5;5.1E-7;0;Iridium
14.34216593;0.0001154;86.3936;293.7425;116.5169;243.6145;1.1741E-5;5.3E-7;0;Iridium
